{
  "type": "FeatureCollection",
  "features": [
    {
      "type": "Feature",
      "properties": {
        "norad_id": 52912,
        "name": "GAOFEN-12 03",
        "group": "resource",
        "lat": 30.81545718499429,
        "lon": 73.20180523114169,
        "alt_km": 629.1208215954912,
        "timestamp": "2025-12-27T11:23:19.535271+00:00",
        "meta_object_name": "GAOFEN-12 03",
        "meta_object_id": "2022-069A",
        "meta_epoch": "2025-12-27T04:13:36.410304",
        "meta_mean_motion": 14.79643547,
        "meta_eccentricity": 0.0001733,
        "meta_inclination": 97.8473,
        "meta_ra_of_asc_node": 248.1916,
        "meta_arg_of_pericenter": 45.0917,
        "meta_mean_anomaly": 315.0436,
        "meta_ephemeris_type": 0,
        "meta_classification_type": "U",
        "meta_norad_cat_id": 52912,
        "meta_element_set_no": 999,
        "meta_rev_at_epoch": 18917,
        "meta_bstar": 0.00019209,
        "meta_mean_motion_dot": 1.39e-05,
        "meta_mean_motion_ddot": 0,
        "tle_line1": "1 52912U 22069A   25361.17611586  .00001390  00000+0  19209-3 0  9996",
        "tle_line2": "2 52912  97.8473 248.1916 0001733  45.0917 315.0436 14.79643547189178"
      },
      "geometry": {
        "type": "Point",
        "coordinates": [
          73.20180523114169,
          30.81545718499429
        ]
      }
    },
    {
      "type": "Feature",
      "properties": {
        "norad_id": 54754,
        "name": "SWOT",
        "group": "resource",
        "lat": -59.23226847349297,
        "lon": 108.76673997663434,
        "alt_km": 900.4518375688021,
        "timestamp": "2025-12-27T11:23:19.535281+00:00",
        "meta_object_name": "SWOT",
        "meta_object_id": "2022-173A",
        "meta_epoch": "2025-12-27T03:22:44.590368",
        "meta_mean_motion": 14.00169136,
        "meta_eccentricity": 4.29e-05,
        "meta_inclination": 77.6106,
        "meta_ra_of_asc_node": 267.5506,
        "meta_arg_of_pericenter": 80.0658,
        "meta_mean_anomaly": 280.0542,
        "meta_ephemeris_type": 0,
        "meta_classification_type": "U",
        "meta_norad_cat_id": 54754,
        "meta_element_set_no": 999,
        "meta_rev_at_epoch": 15507,
        "meta_bstar": 9.4158e-05,
        "meta_mean_motion_dot": 1.36e-06,
        "meta_mean_motion_ddot": 0,
        "tle_line1": "1 54754U 22173A   25361.14079387  .00000136  00000+0  94158-4 0  9996",
        "tle_line2": "2 54754  77.6106 267.5506 0000429  80.0658 280.0542 14.00169136155077"
      },
      "geometry": {
        "type": "Point",
        "coordinates": [
          108.76673997663434,
          -59.23226847349297
        ]
      }
    },
    {
      "type": "Feature",
      "properties": {
        "norad_id": 57654,
        "name": "GAOFEN-12 04",
        "group": "resource",
        "lat": -36.262968397768944,
        "lon": -77.13497147148911,
        "alt_km": 636.8575470368723,
        "timestamp": "2025-12-27T11:23:19.535291+00:00",
        "meta_object_name": "GAOFEN-12 04",
        "meta_object_id": "2023-123A",
        "meta_epoch": "2025-12-27T05:03:45.311040",
        "meta_mean_motion": 14.79742789,
        "meta_eccentricity": 0.0001189,
        "meta_inclination": 97.9129,
        "meta_ra_of_asc_node": 276.7494,
        "meta_arg_of_pericenter": 80.9921,
        "meta_mean_anomaly": 279.1425,
        "meta_ephemeris_type": 0,
        "meta_classification_type": "U",
        "meta_norad_cat_id": 57654,
        "meta_element_set_no": 999,
        "meta_rev_at_epoch": 12719,
        "meta_bstar": 0.00022629,
        "meta_mean_motion_dot": 1.65e-05,
        "meta_mean_motion_ddot": 0,
        "tle_line1": "1 57654U 23123A   25361.21094110  .00001650  00000+0  22629-3 0  9998",
        "tle_line2": "2 57654  97.9129 276.7494 0001189  80.9921 279.1425 14.79742789127191"
      },
      "geometry": {
        "type": "Point",
        "coordinates": [
          -77.13497147148911,
          -36.262968397768944
        ]
      }
    },
    {
      "type": "Feature",
      "properties": {
        "norad_id": 59065,
        "name": "PARS 1",
        "group": "resource",
        "lat": 12.382917598676451,
        "lon": -28.925378389371353,
        "alt_km": 436.11418257965306,
        "timestamp": "2025-12-27T11:23:19.535302+00:00",
        "meta_object_name": "PARS 1",
        "meta_object_id": "2024-039Q",
        "meta_epoch": "2025-12-27T05:06:08.453376",
        "meta_mean_motion": 15.41311345,
        "meta_eccentricity": 0.0011282,
        "meta_inclination": 97.4655,
        "meta_ra_of_asc_node": 332.4567,
        "meta_arg_of_pericenter": 27.631,
        "meta_mean_anomaly": 332.5533,
        "meta_ephemeris_type": 0,
        "meta_classification_type": "U",
        "meta_norad_cat_id": 59065,
        "meta_element_set_no": 999,
        "meta_rev_at_epoch": 10211,
        "meta_bstar": 0.00035398,
        "meta_mean_motion_dot": 0.00014702,
        "meta_mean_motion_ddot": 0,
        "tle_line1": "1 59065U 24039Q   25361.21259784  .00014702  00000+0  35398-3 0  9992",
        "tle_line2": "2 59065  97.4655 332.4567 0011282  27.6310 332.5533 15.41311345102113"
      },
      "geometry": {
        "type": "Point",
        "coordinates": [
          -28.925378389371353,
          12.382917598676451
        ]
      }
    },
    {
      "type": "Feature",
      "properties": {
        "norad_id": 59371,
        "name": "RESURS-P 4",
        "group": "resource",
        "lat": 37.68029941112354,
        "lon": -58.14245771555835,
        "alt_km": 466.22226281484654,
        "timestamp": "2025-12-27T11:23:19.535312+00:00",
        "meta_object_name": "RESURS-P 4",
        "meta_object_id": "2024-061A",
        "meta_epoch": "2025-12-27T04:57:13.661568",
        "meta_mean_motion": 15.3221418,
        "meta_eccentricity": 8.09e-05,
        "meta_inclination": 97.2562,
        "meta_ra_of_asc_node": 307.2423,
        "meta_arg_of_pericenter": 94.2695,
        "meta_mean_anomaly": 265.864,
        "meta_ephemeris_type": 0,
        "meta_classification_type": "U",
        "meta_norad_cat_id": 59371,
        "meta_element_set_no": 999,
        "meta_rev_at_epoch": 9742,
        "meta_bstar": 0.00015069,
        "meta_mean_motion_dot": 4.61e-05,
        "meta_mean_motion_ddot": 0,
        "tle_line1": "1 59371U 24061A   25361.20640812  .00004610  00000+0  15069-3 0  9992",
        "tle_line2": "2 59371  97.2562 307.2423 0000809  94.2695 265.8640 15.32214180 97421"
      },
      "geometry": {
        "type": "Point",
        "coordinates": [
          -58.14245771555835,
          37.68029941112354
        ]
      }
    },
    {
      "type": "Feature",
      "properties": {
        "norad_id": 59625,
        "name": "LEGION 1",
        "group": "resource",
        "lat": 22.24481935437385,
        "lon": -100.91613652964472,
        "alt_km": 515.8986508792432,
        "timestamp": "2025-12-27T11:23:19.535322+00:00",
        "meta_object_name": "LEGION 1",
        "meta_object_id": "2024-081A",
        "meta_epoch": "2025-12-27T04:21:45.226944",
        "meta_mean_motion": 15.16623266,
        "meta_eccentricity": 0.000367,
        "meta_inclination": 97.5192,
        "meta_ra_of_asc_node": 75.6968,
        "meta_arg_of_pericenter": 249.8496,
        "meta_mean_anomaly": 110.2342,
        "meta_ephemeris_type": 0,
        "meta_classification_type": "U",
        "meta_norad_cat_id": 59625,
        "meta_element_set_no": 999,
        "meta_rev_at_epoch": 9146,
        "meta_bstar": 0.00030145,
        "meta_mean_motion_dot": 5.827e-05,
        "meta_mean_motion_ddot": 0,
        "tle_line1": "1 59625U 24081A   25361.18177346  .00005827  00000+0  30145-3 0  9993",
        "tle_line2": "2 59625  97.5192  75.6968 0003670 249.8496 110.2342 15.16623266 91462"
      },
      "geometry": {
        "type": "Point",
        "coordinates": [
          -100.91613652964472,
          22.24481935437385
        ]
      }
    },
    {
      "type": "Feature",
      "properties": {
        "norad_id": 59626,
        "name": "LEGION 2",
        "group": "resource",
        "lat": -21.91760559962371,
        "lon": 79.12177802170167,
        "alt_km": 522.6424852972923,
        "timestamp": "2025-12-27T11:23:19.535333+00:00",
        "meta_object_name": "LEGION 2",
        "meta_object_id": "2024-081B",
        "meta_epoch": "2025-12-27T03:34:07.898592",
        "meta_mean_motion": 15.1663819,
        "meta_eccentricity": 0.0005839,
        "meta_inclination": 97.5197,
        "meta_ra_of_asc_node": 75.7521,
        "meta_arg_of_pericenter": 231.543,
        "meta_mean_anomaly": 128.528,
        "meta_ephemeris_type": 0,
        "meta_classification_type": "U",
        "meta_norad_cat_id": 59626,
        "meta_element_set_no": 999,
        "meta_rev_at_epoch": 9146,
        "meta_bstar": 0.00033037,
        "meta_mean_motion_dot": 6.397e-05,
        "meta_mean_motion_ddot": 0,
        "tle_line1": "1 59626U 24081B   25361.14870253  .00006397  00000+0  33037-3 0  9993",
        "tle_line2": "2 59626  97.5197  75.7521 0005839 231.5430 128.5280 15.16638190 91464"
      },
      "geometry": {
        "type": "Point",
        "coordinates": [
          79.12177802170167,
          -21.91760559962371
        ]
      }
    }
  ]
}